BANDWAGON-2 OBJECT D    
1 62380U 24247D   26068.52261193  .00011259  00000+0  40119-3 0  9994
2 62380  44.9954 115.6710 0003488 351.1453   8.9368 15.29076102 67732
STARLINK-34652          
1 64772U 25147T   26068.74013289  .00059951  00000+0  20167-2 0  9997
2 64772  53.1597 242.2231 0001190  57.1367 302.9748 15.30252594 38767
